CCSDS_OMM_VERS = 2.0
CREATION_DATE  = 
ORIGINATOR     = 

OBJECT_NAME    = UNKNOWN
OBJECT_ID      = 
CENTER_NAME    = EARTH
REF_FRAME      = TEME
TIME_SYSTEM    = UTC
MEAN_ELEMENT_THEORY = SGP/SGP4

EPOCH          = 2026-03-17T05:47:08.079072
MEAN_MOTION    = 13.04778150
ECCENTRICITY   = .02788588
INCLINATION    = 63.5712
RA_OF_ASC_NODE = 75.5352
ARG_OF_PERICENTER = 332.1326
MEAN_ANOMALY   = 26.4977

EPHEMERIS_TYPE = 0
CLASSIFICATION_TYPE = U
NORAD_CAT_ID   = 270135
ELEMENT_SET_NO = 999
REV_AT_EPOCH   = 29996
BSTAR          = .11212047E-2
MEAN_MOTION_DOT = .356E-5
MEAN_MOTION_DDOT = 0

CCSDS_OMM_VERS = 2.0
CREATION_DATE  = 
ORIGINATOR     = 

OBJECT_NAME    = UNKNOWN
OBJECT_ID      = 
CENTER_NAME    = EARTH
REF_FRAME      = TEME
TIME_SYSTEM    = UTC
MEAN_ELEMENT_THEORY = SGP/SGP4

EPOCH          = 2026-03-20T12:47:42.833760
MEAN_MOTION    = 13.02489801
ECCENTRICITY   = .00238182
INCLINATION    = 90.2453
RA_OF_ASC_NODE = 3.2192
ARG_OF_PERICENTER = 196.8147
MEAN_ANOMALY   = 163.2189

EPHEMERIS_TYPE = 0
CLASSIFICATION_TYPE = U
NORAD_CAT_ID   = 270136
ELEMENT_SET_NO = 999
REV_AT_EPOCH   = 29949
BSTAR          = .49704568E-2
MEAN_MOTION_DOT = .1559E-4
MEAN_MOTION_DDOT = 0

CCSDS_OMM_VERS = 2.0
CREATION_DATE  = 
ORIGINATOR     = 

OBJECT_NAME    = UNKNOWN
OBJECT_ID      = 
CENTER_NAME    = EARTH
REF_FRAME      = TEME
TIME_SYSTEM    = UTC
MEAN_ELEMENT_THEORY = SGP/SGP4

EPOCH          = 2026-03-19T01:41:14.433216
MEAN_MOTION    = 12.12973429
ECCENTRICITY   = .03089662
INCLINATION    = 100.9900
RA_OF_ASC_NODE = 190.3176
ARG_OF_PERICENTER = 96.0744
MEAN_ANOMALY   = 267.5600

EPHEMERIS_TYPE = 0
CLASSIFICATION_TYPE = U
NORAD_CAT_ID   = 270137
ELEMENT_SET_NO = 999
REV_AT_EPOCH   = 27935
BSTAR          = -.251048E-3
MEAN_MOTION_DOT = -.62E-6
MEAN_MOTION_DDOT = 0

CCSDS_OMM_VERS = 2.0
CREATION_DATE  = 
ORIGINATOR     = 

OBJECT_NAME    = UNKNOWN
OBJECT_ID      = 
CENTER_NAME    = EARTH
REF_FRAME      = TEME
TIME_SYSTEM    = UTC
MEAN_ELEMENT_THEORY = SGP/SGP4

EPOCH          = 2026-03-21T11:49:46.399296
MEAN_MOTION    = 14.93662142
ECCENTRICITY   = .00102543
INCLINATION    = 97.8116
RA_OF_ASC_NODE = 171.5916
ARG_OF_PERICENTER = 41.3387
MEAN_ANOMALY   = 318.8607

EPHEMERIS_TYPE = 0
CLASSIFICATION_TYPE = U
NORAD_CAT_ID   = 270138
ELEMENT_SET_NO = 999
REV_AT_EPOCH   = 34194
BSTAR          = .36420689E-3
MEAN_MOTION_DOT = .3796E-4
MEAN_MOTION_DDOT = 0

CCSDS_OMM_VERS = 2.0
CREATION_DATE  = 
ORIGINATOR     = 

OBJECT_NAME    = UNKNOWN
OBJECT_ID      = 
CENTER_NAME    = EARTH
REF_FRAME      = TEME
TIME_SYSTEM    = UTC
MEAN_ELEMENT_THEORY = SGP/SGP4

EPOCH          = 2026-03-19T11:25:42.751200
MEAN_MOTION    = 12.51455820
ECCENTRICITY   = .07848679
INCLINATION    = 99.4288
RA_OF_ASC_NODE = 159.6164
ARG_OF_PERICENTER = 226.4488
MEAN_ANOMALY   = 126.8789

EPHEMERIS_TYPE = 0
CLASSIFICATION_TYPE = U
NORAD_CAT_ID   = 270140
ELEMENT_SET_NO = 999
REV_AT_EPOCH   = 28718
BSTAR          = .47690221E-2
MEAN_MOTION_DOT = .228E-4
MEAN_MOTION_DDOT = 0

CCSDS_OMM_VERS = 2.0
CREATION_DATE  = 
ORIGINATOR     = 

OBJECT_NAME    = UNKNOWN
OBJECT_ID      = 
CENTER_NAME    = EARTH
REF_FRAME      = TEME
TIME_SYSTEM    = UTC
MEAN_ELEMENT_THEORY = SGP/SGP4

EPOCH          = 2026-03-15T23:09:11.501280
MEAN_MOTION    = 12.42205496
ECCENTRICITY   = .00261914
INCLINATION    = 73.6100
RA_OF_ASC_NODE = 155.4255
ARG_OF_PERICENTER = 339.4477
MEAN_ANOMALY   = 20.5512

EPHEMERIS_TYPE = 0
CLASSIFICATION_TYPE = U
NORAD_CAT_ID   = 270141
ELEMENT_SET_NO = 999
REV_AT_EPOCH   = 28567
BSTAR          = .27889758E-3
MEAN_MOTION_DOT = .21E-6
MEAN_MOTION_DDOT = 0

CCSDS_OMM_VERS = 2.0
CREATION_DATE  = 
ORIGINATOR     = 

OBJECT_NAME    = UNKNOWN
OBJECT_ID      = 
CENTER_NAME    = EARTH
REF_FRAME      = TEME
TIME_SYSTEM    = UTC
MEAN_ELEMENT_THEORY = SGP/SGP4

EPOCH          = 2026-03-15T08:52:03.723456
MEAN_MOTION    = 13.68253143
ECCENTRICITY   = .0043461
INCLINATION    = 99.2594
RA_OF_ASC_NODE = 301.9991
ARG_OF_PERICENTER = 338.9803
MEAN_ANOMALY   = 20.9556

EPHEMERIS_TYPE = 0
CLASSIFICATION_TYPE = U
NORAD_CAT_ID   = 270143
ELEMENT_SET_NO = 999
REV_AT_EPOCH   = 31449
BSTAR          = .31266259E-3
MEAN_MOTION_DOT = .226E-5
MEAN_MOTION_DDOT = 0

CCSDS_OMM_VERS = 2.0
CREATION_DATE  = 
ORIGINATOR     = 

OBJECT_NAME    = UNKNOWN
OBJECT_ID      = 
CENTER_NAME    = EARTH
REF_FRAME      = TEME
TIME_SYSTEM    = UTC
MEAN_ELEMENT_THEORY = SGP/SGP4

EPOCH          = 2026-03-16T22:08:27.037824
MEAN_MOTION    = 11.61601555
ECCENTRICITY   = .06072402
INCLINATION    = 102.4372
RA_OF_ASC_NODE = 152.6185
ARG_OF_PERICENTER = 179.8946
MEAN_ANOMALY   = 180.2295

EPHEMERIS_TYPE = 0
CLASSIFICATION_TYPE = U
NORAD_CAT_ID   = 270147
ELEMENT_SET_NO = 999
REV_AT_EPOCH   = 2934
BSTAR          = .16837583E-1
MEAN_MOTION_DOT = .132E-4
MEAN_MOTION_DDOT = 0

CCSDS_OMM_VERS = 2.0
CREATION_DATE  = 
ORIGINATOR     = 

OBJECT_NAME    = UNKNOWN
OBJECT_ID      = 
CENTER_NAME    = EARTH
REF_FRAME      = TEME
TIME_SYSTEM    = UTC
MEAN_ELEMENT_THEORY = SGP/SGP4

EPOCH          = 2026-03-21T01:51:15.520608
MEAN_MOTION    = 13.06147519
ECCENTRICITY   = .00308074
INCLINATION    = 90.3167
RA_OF_ASC_NODE = 13.2234
ARG_OF_PERICENTER = 319.5304
MEAN_ANOMALY   = 40.3531

EPHEMERIS_TYPE = 0
CLASSIFICATION_TYPE = U
NORAD_CAT_ID   = 270149
ELEMENT_SET_NO = 999
REV_AT_EPOCH   = 29986
BSTAR          = -.48480728E-4
MEAN_MOTION_DOT = -.9E-7
MEAN_MOTION_DDOT = 0

CCSDS_OMM_VERS = 2.0
CREATION_DATE  = 
ORIGINATOR     = 

OBJECT_NAME    = UNKNOWN
OBJECT_ID      = 
CENTER_NAME    = EARTH
REF_FRAME      = TEME
TIME_SYSTEM    = UTC
MEAN_ELEMENT_THEORY = SGP/SGP4

EPOCH          = 2026-03-15T15:36:17.363808
MEAN_MOTION    = 12.98973135
ECCENTRICITY   = .00360025
INCLINATION    = 90.3119
RA_OF_ASC_NODE = 40.8419
ARG_OF_PERICENTER = 231.9978
MEAN_ANOMALY   = 127.7891

EPHEMERIS_TYPE = 0
CLASSIFICATION_TYPE = U
NORAD_CAT_ID   = 270152
ELEMENT_SET_NO = 999
REV_AT_EPOCH   = 29846
BSTAR          = .22405426E-2
MEAN_MOTION_DOT = .673E-5
MEAN_MOTION_DDOT = 0

CCSDS_OMM_VERS = 2.0
CREATION_DATE  = 
ORIGINATOR     = 

OBJECT_NAME    = UNKNOWN
OBJECT_ID      = 
CENTER_NAME    = EARTH
REF_FRAME      = TEME
TIME_SYSTEM    = UTC
MEAN_ELEMENT_THEORY = SGP/SGP4

EPOCH          = 2026-02-27T20:35:05.896896
MEAN_MOTION    = 12.30591894
ECCENTRICITY   = .07503879
INCLINATION    = 83.2073
RA_OF_ASC_NODE = 116.1979
ARG_OF_PERICENTER = 216.3237
MEAN_ANOMALY   = 138.4622

EPHEMERIS_TYPE = 0
CLASSIFICATION_TYPE = U
NORAD_CAT_ID   = 270153
ELEMENT_SET_NO = 999
REV_AT_EPOCH   = 28034
BSTAR          = .38071536E-2
MEAN_MOTION_DOT = .1163E-4
MEAN_MOTION_DDOT = 0

CCSDS_OMM_VERS = 2.0
CREATION_DATE  = 
ORIGINATOR     = 

OBJECT_NAME    = UNKNOWN
OBJECT_ID      = 
CENTER_NAME    = EARTH
REF_FRAME      = TEME
TIME_SYSTEM    = UTC
MEAN_ELEMENT_THEORY = SGP/SGP4

EPOCH          = 2026-03-16T12:27:39.028608
MEAN_MOTION    = 12.96288641
ECCENTRICITY   = .00334523
INCLINATION    = 90.2507
RA_OF_ASC_NODE = 10.9907
ARG_OF_PERICENTER = 38.3873
MEAN_ANOMALY   = 321.9618

EPHEMERIS_TYPE = 0
CLASSIFICATION_TYPE = U
NORAD_CAT_ID   = 270154
ELEMENT_SET_NO = 999
REV_AT_EPOCH   = 29773
BSTAR          = .83304912E-3
MEAN_MOTION_DOT = .246E-5
MEAN_MOTION_DDOT = 0

CCSDS_OMM_VERS = 2.0
CREATION_DATE  = 
ORIGINATOR     = 

OBJECT_NAME    = UNKNOWN
OBJECT_ID      = 
CENTER_NAME    = EARTH
REF_FRAME      = TEME
TIME_SYSTEM    = UTC
MEAN_ELEMENT_THEORY = SGP/SGP4

EPOCH          = 2026-03-13T19:50:22.789824
MEAN_MOTION    = 12.54997377
ECCENTRICITY   = .00678433
INCLINATION    = 101.9307
RA_OF_ASC_NODE = 296.8978
ARG_OF_PERICENTER = 245.4783
MEAN_ANOMALY   = 113.9206

EPHEMERIS_TYPE = 0
CLASSIFICATION_TYPE = U
NORAD_CAT_ID   = 270155
ELEMENT_SET_NO = 999
REV_AT_EPOCH   = 28818
BSTAR          = .22069842E-2
MEAN_MOTION_DOT = .315E-5
MEAN_MOTION_DDOT = 0

CCSDS_OMM_VERS = 2.0
CREATION_DATE  = 
ORIGINATOR     = 

OBJECT_NAME    = UNKNOWN
OBJECT_ID      = 
CENTER_NAME    = EARTH
REF_FRAME      = TEME
TIME_SYSTEM    = UTC
MEAN_ELEMENT_THEORY = SGP/SGP4

EPOCH          = 2026-03-19T13:01:14.328480
MEAN_MOTION    = 13.04399374
ECCENTRICITY   = .00255246
INCLINATION    = 90.2123
RA_OF_ASC_NODE = 16.3259
ARG_OF_PERICENTER = 46.0141
MEAN_ANOMALY   = 314.3083

EPHEMERIS_TYPE = 0
CLASSIFICATION_TYPE = U
NORAD_CAT_ID   = 270156
ELEMENT_SET_NO = 999
REV_AT_EPOCH   = 29889
BSTAR          = -.64898289E-3
MEAN_MOTION_DOT = -.2E-5
MEAN_MOTION_DDOT = 0

CCSDS_OMM_VERS = 2.0
CREATION_DATE  = 
ORIGINATOR     = 

OBJECT_NAME    = UNKNOWN
OBJECT_ID      = 
CENTER_NAME    = EARTH
REF_FRAME      = TEME
TIME_SYSTEM    = UTC
MEAN_ELEMENT_THEORY = SGP/SGP4

EPOCH          = 2026-03-17T07:19:34.552992
MEAN_MOTION    = 12.21569499
ECCENTRICITY   = .01370864
INCLINATION    = 73.9993
RA_OF_ASC_NODE = 82.5587
ARG_OF_PERICENTER = 189.9284
MEAN_ANOMALY   = 169.9037

EPHEMERIS_TYPE = 0
CLASSIFICATION_TYPE = U
NORAD_CAT_ID   = 270158
ELEMENT_SET_NO = 999
REV_AT_EPOCH   = 28122
BSTAR          = .321807E-3
MEAN_MOTION_DOT = .2E-6
MEAN_MOTION_DDOT = 0

CCSDS_OMM_VERS = 2.0
CREATION_DATE  = 
ORIGINATOR     = 

OBJECT_NAME    = UNKNOWN
OBJECT_ID      = 
CENTER_NAME    = EARTH
REF_FRAME      = TEME
TIME_SYSTEM    = UTC
MEAN_ELEMENT_THEORY = SGP/SGP4

EPOCH          = 2026-03-19T11:09:34.838784
MEAN_MOTION    = 12.81675751
ECCENTRICITY   = .02714963
INCLINATION    = 62.9627
RA_OF_ASC_NODE = 350.7108
ARG_OF_PERICENTER = 227.3187
MEAN_ANOMALY   = 130.4645

EPHEMERIS_TYPE = 0
CLASSIFICATION_TYPE = U
NORAD_CAT_ID   = 270159
ELEMENT_SET_NO = 999
REV_AT_EPOCH   = 29520
BSTAR          = -.20728727E-3
MEAN_MOTION_DOT = -.134E-5
MEAN_MOTION_DDOT = 0

